PHISAT 2                
1 60470U 24149C   26068.78834181  .00008925  00000+0  31421-3 0  9996
2 60470  97.3806 148.6498 0001175 168.6230 191.5037 15.29548631 86792
STARLINK-31844          
1 60583U 24150A   26068.87252156 -.00005675  00000+0 -17950-3 0  9991
2 60583  53.1602 305.8736 0000760  93.5651 266.5437 15.30224977 88071
